{"type":"FeatureCollection","name":"hydropower_2020","crs":{"type":"name","properties":{"name":"urn:ogc:def:crs:OGC:1.3:CRS84"}},"features":[{"type":"Feature","properties":{"ID":17,"Vietnamese":"A Vương","English_hy":"A Vuong","Wattage_PL":210,"Quantity_(":815,"Year_of_la":"8/2003","Year_of_op":"12/2008","Y":15.799811,"X":107.617092},"geometry":{"type":"Point","coordinates":[107.617092,15.799811]}},{"type":"Feature","properties":{"ID":18,"Vietnamese":"Sông Bung 2","English_hy":"Song Bung 2","Wattage_PL":100,"Quantity_(":420,"Year_of_la":"2012","Year_of_op":"2017","Y":15.700021,"X":107.486534},"geometry":{"type":"Point","coordinates":[107.486534,15.700021]}},{"type":"Feature","properties":{"ID":19,"Vietnamese":"Sông Bung 4","English_hy":"Song Bung 4","Wattage_PL":156,"Quantity_(":586,"Year_of_la":"210","Year_of_op":"2015","Y":15.725833,"X":107.651175},"geometry":{"type":"Point","coordinates":[107.651175,15.725833]}},{"type":"Feature","properties":{"ID":20,"Vietnamese":"Đăk Mi 4","English_hy":"Dak Mi 4","Wattage_PL":190,"Quantity_(":752,"Year_of_la":"2007","Year_of_op":"2012","Y":15.458986,"X":107.912358},"geometry":{"type":"Point","coordinates":[107.912358,15.458986]}},{"type":"Feature","properties":{"ID":21,"Vietnamese":"Sông Tranh 2","English_hy":"Song Tranh 2","Wattage_PL":190,"Quantity_(":680,"Year_of_la":"2006","Year_of_op":"2010","Y":15.331214,"X":108.147781},"geometry":{"type":"Point","coordinates":[108.147781,15.331214]}},{"type":"Feature","properties":{"ID":22,"Vietnamese":"An Khê - Kanak","English_hy":"An Khe - Kanak","Wattage_PL":173,"Quantity_(":700,"Year_of_la":"11/2005","Year_of_op":"2009","Y":14.014833,"X":108.679575},"geometry":{"type":"Point","coordinates":[108.679575,14.014833]}},{"type":"Feature","properties":{"ID":23,"Vietnamese":"Sông Ba Hạ","English_hy":"Song Ba Ha","Wattage_PL":220,"Quantity_(":835,"Year_of_la":"4/2004","Year_of_op":"11/2009","Y":13.022625,"X":108.903872},"geometry":{"type":"Point","coordinates":[108.903872,13.022625]}},{"type":"Feature","properties":{"ID":24,"Vietnamese":"Plei Krông","English_hy":"Plei Krong","Wattage_PL":100,"Quantity_(":417,"Year_of_la":"11/2003","Year_of_op":"5/2009","Y":14.408347,"X":107.863044},"geometry":{"type":"Point","coordinates":[107.863044,14.408347]}},{"type":"Feature","properties":{"ID":25,"Vietnamese":"Ialy","English_hy":"Ialy","Wattage_PL":720,"Quantity_(":3680,"Year_of_la":"1993","Year_of_op":"2002","Y":14.227369,"X":107.829361},"geometry":{"type":"Point","coordinates":[107.829361,14.227369]}},{"type":"Feature","properties":{"ID":26,"Vietnamese":"Sê San 3","English_hy":"Se San 3","Wattage_PL":260,"Quantity_(":221,"Year_of_la":"2002","Year_of_op":"2006","Y":14.215164,"X":107.722164},"geometry":{"type":"Point","coordinates":[107.722164,14.215164]}},{"type":"Feature","properties":{"ID":27,"Vietnamese":"Sê San 3A","English_hy":"Se San 3A","Wattage_PL":108,"Quantity_(":479,"Year_of_la":"4/2003","Year_of_op":"6/2007","Y":14.106311,"X":107.657672},"geometry":{"type":"Point","coordinates":[107.657672,14.106311]}},{"type":"Feature","properties":{"ID":28,"Vietnamese":"Sê San 4","English_hy":"Se San 4","Wattage_PL":360,"Quantity_(":1042,"Year_of_la":"2004","Year_of_op":"2009","Y":13.967831,"X":107.495328},"geometry":{"type":"Point","coordinates":[107.495328,13.967831]}},{"type":"Feature","properties":{"ID":29,"Vietnamese":"Buôn Kuốp","English_hy":"Buon Kuop","Wattage_PL":280,"Quantity_(":1105,"Year_of_la":"2003","Year_of_op":"2011","Y":12.530467,"X":107.924325},"geometry":{"type":"Point","coordinates":[107.924325,12.530467]}},{"type":"Feature","properties":{"ID":30,"Vietnamese":"Sêrêpôk 3","English_hy":"Serepok 3","Wattage_PL":220,"Quantity_(":1060,"Year_of_la":"2005","Year_of_op":"2009","Y":12.752433,"X":107.876758},"geometry":{"type":"Point","coordinates":[107.876758,12.752433]}},{"type":"Feature","properties":{"ID":31,"Vietnamese":"Thượng Kon Tum","English_hy":"Thuong Kon Tum","Wattage_PL":220,"Quantity_(":1094,"Year_of_la":"9/2009","Year_of_op":"3/2020","Y":14.694139,"X":108.229889},"geometry":{"type":"Point","coordinates":[108.229889,14.694139]}},{"type":"Feature","properties":{"ID":32,"Vietnamese":"Đăk Đrinh","English_hy":"Dak Drinh","Wattage_PL":125,"Quantity_(":520,"Year_of_la":"2/2008","Year_of_op":"2014","Y":14.978447,"X":108.301314},"geometry":{"type":"Point","coordinates":[108.301314,14.978447]}},{"type":"Feature","properties":{"ID":34,"Vietnamese":"Đa Nhim","English_hy":"Da Nhim","Wattage_PL":160,"Quantity_(":1000,"Year_of_la":"1962","Year_of_op":"1964","Y":11.852897,"X":108.605836},"geometry":{"type":"Point","coordinates":[108.605836,11.852897]}},{"type":"Feature","properties":{"ID":35,"Vietnamese":"Đại Ninh","English_hy":"Dai Ninh","Wattage_PL":300,"Quantity_(":1178,"Year_of_la":"2003","Year_of_op":"2008","Y":11.649864,"X":108.320239},"geometry":{"type":"Point","coordinates":[108.320239,11.649864]}},{"type":"Feature","properties":{"ID":36,"Vietnamese":"Đồng Nai 3","English_hy":"Dong Nai 3","Wattage_PL":180,"Quantity_(":607,"Year_of_la":"2004","Year_of_op":"2011","Y":11.872225,"X":107.888656},"geometry":{"type":"Point","coordinates":[107.888656,11.872225]}},{"type":"Feature","properties":{"ID":37,"Vietnamese":"Đồng Nai 4","English_hy":"Dong Nai 4","Wattage_PL":340,"Quantity_(":1100,"Year_of_la":"2004","Year_of_op":"2012","Y":11.885128,"X":107.728639},"geometry":{"type":"Point","coordinates":[107.728639,11.885128]}},{"type":"Feature","properties":{"ID":38,"Vietnamese":"Đồng Nai 5","English_hy":"Dong Nai 5","Wattage_PL":150,"Quantity_(":616,"Year_of_la":"2012","Year_of_op":"2015","Y":11.792692,"X":107.553364},"geometry":{"type":"Point","coordinates":[107.553364,11.792692]}},{"type":"Feature","properties":{"ID":40,"Vietnamese":"Hàm Thuận - Đa Mi","English_hy":"Ham Thuan - Da Mi","Wattage_PL":475,"Quantity_(":1555,"Year_of_la":"1997","Year_of_op":"2001","Y":11.335956,"X":107.934956},"geometry":{"type":"Point","coordinates":[107.934956,11.335956]}},{"type":"Feature","properties":{"ID":41,"Vietnamese":"Đăk R’Tih","English_hy":"Dak R’Tih","Wattage_PL":144,"Quantity_(":637,"Year_of_la":"2007","Year_of_op":"2011","Y":11.96642,"X":107.657365},"geometry":{"type":"Point","coordinates":[107.657365,11.96642]}},{"type":"Feature","properties":{"ID":64,"Vietnamese":"Sông Lô 5","English_hy":"Song Lo 5","Wattage_PL":29.7,"Quantity_(":115.8,"Year_of_la":"2020","Year_of_op":null,"Y":null,"X":null},"geometry":null},{"type":"Feature","properties":{"ID":84,"Vietnamese":"Bảo Lâm 3A","English_hy":"Bao Lam 3A","Wattage_PL":8,"Quantity_(":33.4,"Year_of_la":"2/2016","Year_of_op":"6/2018","Y":null,"X":null},"geometry":null},{"type":"Feature","properties":{"ID":118,"Vietnamese":"Tà Lơi 1","English_hy":"Ta Loi 1","Wattage_PL":15,"Quantity_(":58,"Year_of_la":"2015","Year_of_op":null,"Y":null,"X":null},"geometry":null},{"type":"Feature","properties":{"ID":143,"Vietnamese":"Nậm Chim 1A","English_hy":"Nam Chim 1A","Wattage_PL":10,"Quantity_(":null,"Year_of_la":"2013","Year_of_op":"2015","Y":null,"X":null},"geometry":null},{"type":"Feature","properties":{"ID":144,"Vietnamese":"Nậm Chim 1B","English_hy":"Nam Chim 1B","Wattage_PL":10,"Quantity_(":null,"Year_of_la":"2016","Year_of_op":null,"Y":null,"X":null},"geometry":null},{"type":"Feature","properties":{"ID":150,"Vietnamese":"Đông Pao","English_hy":"Dong Pao","Wattage_PL":6.5,"Quantity_(":27,"Year_of_la":"2019","Year_of_op":"2021","Y":null,"X":null},"geometry":null},{"type":"Feature","properties":{"ID":151,"Vietnamese":"Chu Va 2","English_hy":"Chu Va 2","Wattage_PL":12,"Quantity_(":null,"Year_of_la":"11/2017","Year_of_op":"5/2019","Y":null,"X":null},"geometry":null},{"type":"Feature","properties":{"ID":187,"Vietnamese":"Nậm Sì Lường 3","English_hy":"Nam Si Luong 3","Wattage_PL":21,"Quantity_(":null,"Year_of_la":"2017","Year_of_op":"2020","Y":null,"X":null},"geometry":null},{"type":"Feature","properties":{"ID":188,"Vietnamese":"Nậm Sì Lường 4","English_hy":"Nam Si Luong 4","Wattage_PL":20,"Quantity_(":null,"Year_of_la":"2017","Year_of_op":"2020","Y":null,"X":null},"geometry":null},{"type":"Feature","properties":{"ID":216,"Vietnamese":"Tam Thanh","English_hy":"Tam Thanh","Wattage_PL":7,"Quantity_(":null,"Year_of_la":"2017","Year_of_op":"2020","Y":null,"X":null},"geometry":null},{"type":"Feature","properties":{"ID":217,"Vietnamese":"Sơn Lư","English_hy":"Son Lu","Wattage_PL":7,"Quantity_(":null,"Year_of_la":"2017","Year_of_op":"2020","Y":null,"X":null},"geometry":null},{"type":"Feature","properties":{"ID":251,"Vietnamese":"A Vương 3","English_hy":"A Vuong 3","Wattage_PL":4.8,"Quantity_(":25,"Year_of_la":"2011","Year_of_op":"7/2016","Y":15.918274,"X":107.570552},"geometry":{"type":"Point","coordinates":[107.570552,15.918274]}},{"type":"Feature","properties":{"ID":252,"Vietnamese":"Za Hưng","English_hy":"Za Hung","Wattage_PL":30,"Quantity_(":123,"Year_of_la":"2007","Year_of_op":"2009","Y":15.860025,"X":107.653831},"geometry":{"type":"Point","coordinates":[107.653831,15.860025]}},{"type":"Feature","properties":{"ID":253,"Vietnamese":"Sông Bung 4A","English_hy":"Song Bung 4A","Wattage_PL":49,"Quantity_(":199,"Year_of_la":"2009","Year_of_op":"2012","Y":15.764647,"X":107.680164},"geometry":{"type":"Point","coordinates":[107.680164,15.764647]}},{"type":"Feature","properties":{"ID":254,"Vietnamese":"Sông Bung 5","English_hy":"Song Bung 5","Wattage_PL":57,"Quantity_(":225,"Year_of_la":"2011","Year_of_op":"2013","Y":15.807653,"X":107.747153},"geometry":{"type":"Point","coordinates":[107.747153,15.807653]}},{"type":"Feature","properties":{"ID":255,"Vietnamese":"Sông Bung 6","English_hy":"Song Bung 6","Wattage_PL":29,"Quantity_(":121,"Year_of_la":"2010","Year_of_op":"2012","Y":15.818625,"X":107.778736},"geometry":{"type":"Point","coordinates":[107.778736,15.818625]}},{"type":"Feature","properties":{"ID":256,"Vietnamese":"Sông Kôn 2","English_hy":"Song Kon 2","Wattage_PL":63,"Quantity_(":209,"Year_of_la":"2005","Year_of_op":"2009","Y":15.933172,"X":107.808119},"geometry":{"type":"Point","coordinates":[107.808119,15.933172]}},{"type":"Feature","properties":{"ID":257,"Vietnamese":"Đăk Mek 3","English_hy":"Dak Mek 3","Wattage_PL":7.5,"Quantity_(":null,"Year_of_la":"2009","Year_of_op":"2018","Y":15.152793,"X":107.891937},"geometry":{"type":"Point","coordinates":[107.891937,15.152793]}},{"type":"Feature","properties":{"ID":258,"Vietnamese":"Đăk Mi 1","English_hy":"Dak Mi 1","Wattage_PL":84,"Quantity_(":360,"Year_of_la":null,"Year_of_op":null,"Y":15.146389,"X":107.907591},"geometry":{"type":"Point","coordinates":[107.907591,15.146389]}},{"type":"Feature","properties":{"ID":259,"Vietnamese":"Đăk Mi 1A","English_hy":"Dak Mi 1A","Wattage_PL":11,"Quantity_(":null,"Year_of_la":null,"Year_of_op":null,"Y":15.182962,"X":107.818426},"geometry":{"type":"Point","coordinates":[107.818426,15.182962]}},{"type":"Feature","properties":{"ID":260,"Vietnamese":"Đăk Mi 2","English_hy":"Dak Mi 2","Wattage_PL":98,"Quantity_(":415,"Year_of_la":"10/2007","Year_of_op":"2019","Y":15.22979,"X":107.813107},"geometry":{"type":"Point","coordinates":[107.813107,15.22979]}},{"type":"Feature","properties":{"ID":261,"Vietnamese":"Đăk Mi 3","English_hy":"Dak Mi 3","Wattage_PL":63,"Quantity_(":211.9,"Year_of_la":"4/2014","Year_of_op":"08/2017","Y":15.318668,"X":107.824145},"geometry":{"type":"Point","coordinates":[107.824145,15.318668]}},{"type":"Feature","properties":{"ID":262,"Vietnamese":"Đăk Mi 4C","English_hy":"Dak Mi 4C","Wattage_PL":18,"Quantity_(":69,"Year_of_la":"2008","Year_of_op":"2012","Y":15.464153,"X":107.929014},"geometry":{"type":"Point","coordinates":[107.929014,15.464153]}},{"type":"Feature","properties":{"ID":263,"Vietnamese":"Sông Tranh 3","English_hy":"Song Tranh 3","Wattage_PL":62,"Quantity_(":230,"Year_of_la":"7/2010","Year_of_op":"2013","Y":15.444314,"X":108.143006},"geometry":{"type":"Point","coordinates":[108.143006,15.444314]}},{"type":"Feature","properties":{"ID":264,"Vietnamese":"Sông Tranh 4","English_hy":"Song Tranh 4","Wattage_PL":48,"Quantity_(":180,"Year_of_la":"2011","Year_of_op":"2020","Y":15.527058,"X":108.147067},"geometry":{"type":"Point","coordinates":[108.147067,15.527058]}},{"type":"Feature","properties":{"ID":265,"Vietnamese":"An Điềm 2","English_hy":"An Diem 2","Wattage_PL":15.6,"Quantity_(":78.3,"Year_of_la":null,"Year_of_op":"10/2010","Y":15.932876,"X":107.903381},"geometry":{"type":"Point","coordinates":[107.903381,15.932876]}},{"type":"Feature","properties":{"ID":266,"Vietnamese":"An Điềm","English_hy":"An Diem","Wattage_PL":5.4,"Quantity_(":25,"Year_of_la":"1984","Year_of_op":"6/1991","Y":15.902442,"X":107.880857},"geometry":{"type":"Point","coordinates":[107.880857,15.902442]}},{"type":"Feature","properties":{"ID":267,"Vietnamese":"Ayun Thượng 1A","English_hy":"Ayun Thuong 1A","Wattage_PL":12,"Quantity_(":49.8,"Year_of_la":"2009","Year_of_op":"2011","Y":13.928674,"X":108.231445},"geometry":{"type":"Point","coordinates":[108.231445,13.928674]}},{"type":"Feature","properties":{"ID":268,"Vietnamese":"Ayun Trung","English_hy":"Ayun Trung","Wattage_PL":16.5,"Quantity_(":48,"Year_of_la":"2015","Year_of_op":"2018","Y":13.776398,"X":108.166938},"geometry":{"type":"Point","coordinates":[108.166938,13.776398]}},{"type":"Feature","properties":{"ID":269,"Vietnamese":"H'Chan","English_hy":"H'Chan","Wattage_PL":12,"Quantity_(":null,"Year_of_la":"2002","Year_of_op":"2006","Y":13.836132,"X":108.178741},"geometry":{"type":"Point","coordinates":[108.178741,13.836132]}},{"type":"Feature","properties":{"ID":270,"Vietnamese":"H'Mun","English_hy":"H'Mun","Wattage_PL":16.3,"Quantity_(":66,"Year_of_la":"2009","Year_of_op":"2011","Y":13.811043,"X":108.163849},"geometry":{"type":"Point","coordinates":[108.163849,13.811043]}},{"type":"Feature","properties":{"ID":271,"Vietnamese":"Đăk Srông","English_hy":"Dak Srong","Wattage_PL":18,"Quantity_(":68,"Year_of_la":"2006","Year_of_op":"2010","Y":13.765867,"X":108.523597},"geometry":{"type":"Point","coordinates":[108.523597,13.765867]}},{"type":"Feature","properties":{"ID":272,"Vietnamese":"Đăk Srông 2","English_hy":"Dak Srong 2","Wattage_PL":24,"Quantity_(":86,"Year_of_la":"2008","Year_of_op":"2010","Y":13.678575,"X":108.564947},"geometry":{"type":"Point","coordinates":[108.564947,13.678575]}},{"type":"Feature","properties":{"ID":273,"Vietnamese":"Đăk Srông 2A","English_hy":"Dak Srong 2A","Wattage_PL":18,"Quantity_(":60,"Year_of_la":"2009","Year_of_op":"2011","Y":13.678575,"X":108.564947},"geometry":{"type":"Point","coordinates":[108.564947,13.678575]}},{"type":"Feature","properties":{"ID":274,"Vietnamese":"Đăk Srông 3A","English_hy":"Dak Srong 3A","Wattage_PL":10,"Quantity_(":37,"Year_of_la":"2011","Year_of_op":"2014","Y":13.347275,"X":108.53225},"geometry":{"type":"Point","coordinates":[108.53225,13.347275]}},{"type":"Feature","properties":{"ID":275,"Vietnamese":"Đăk Srông 3B","English_hy":"Dak Srong 3B","Wattage_PL":20,"Quantity_(":75,"Year_of_la":"2010","Year_of_op":"2012","Y":13.338092,"X":108.558719},"geometry":{"type":"Point","coordinates":[108.558719,13.338092]}},{"type":"Feature","properties":{"ID":276,"Vietnamese":"Krông H'năng","English_hy":"Krong H'nang","Wattage_PL":64,"Quantity_(":250,"Year_of_la":"2005","Year_of_op":"2010","Y":12.941749,"X":108.711315},"geometry":{"type":"Point","coordinates":[108.711315,12.941749]}},{"type":"Feature","properties":{"ID":277,"Vietnamese":"Đăk Ble","English_hy":"Dak Ble","Wattage_PL":5,"Quantity_(":20.1,"Year_of_la":"2015","Year_of_op":"2017","Y":null,"X":null},"geometry":null},{"type":"Feature","properties":{"ID":278,"Vietnamese":"Hà Nang","English_hy":"Ha Nang","Wattage_PL":11,"Quantity_(":70,"Year_of_la":"2008","Year_of_op":"2011","Y":15.293162,"X":108.487524},"geometry":{"type":"Point","coordinates":[108.487524,15.293162]}},{"type":"Feature","properties":{"ID":279,"Vietnamese":"Krông Hin","English_hy":"Krong Hin","Wattage_PL":5,"Quantity_(":30,"Year_of_la":"2004","Year_of_op":"2006","Y":12.752642,"X":108.867038},"geometry":{"type":"Point","coordinates":[108.867038,12.752642]}},{"type":"Feature","properties":{"ID":280,"Vietnamese":"Krông Pa 2","English_hy":"Krong Pa 2","Wattage_PL":5.8,"Quantity_(":null,"Year_of_la":"2015","Year_of_op":null,"Y":null,"X":null},"geometry":null},{"type":"Feature","properties":{"ID":281,"Vietnamese":"Ea M'Doal 2","English_hy":"Ea M'Doal 2","Wattage_PL":5,"Quantity_(":null,"Year_of_la":null,"Year_of_op":"2010","Y":12.77208,"X":108.882135},"geometry":{"type":"Point","coordinates":[108.882135,12.77208]}},{"type":"Feature","properties":{"ID":282,"Vietnamese":"Ea M'Doal 3","English_hy":"Ea M'Doal 3","Wattage_PL":5,"Quantity_(":null,"Year_of_la":null,"Year_of_op":"2010","Y":12.799883,"X":108.928683},"geometry":{"type":"Point","coordinates":[108.928683,12.799883]}},{"type":"Feature","properties":{"ID":283,"Vietnamese":"Đăk Ne","English_hy":"Dak Ne","Wattage_PL":8.1,"Quantity_(":60,"Year_of_la":"2/2007","Year_of_op":"9/2010","Y":14.528122,"X":108.219058},"geometry":{"type":"Point","coordinates":[108.219058,14.528122]}},{"type":"Feature","properties":{"ID":284,"Vietnamese":"Đăk Pi Hao 4","English_hy":"Dak Pi Hao 4","Wattage_PL":9,"Quantity_(":null,"Year_of_la":null,"Year_of_op":null,"Y":13.718667,"X":108.421052},"geometry":{"type":"Point","coordinates":[108.421052,13.718667]}},{"type":"Feature","properties":{"ID":285,"Vietnamese":"Đăk Bla 1","English_hy":"Dak Bla 1","Wattage_PL":15,"Quantity_(":61.6,"Year_of_la":"6/2015","Year_of_op":"7/2018","Y":14.429366,"X":108.146869},"geometry":{"type":"Point","coordinates":[108.146869,14.429366]}},{"type":"Feature","properties":{"ID":286,"Vietnamese":"Ea Đrăng 2","English_hy":"Ea Drang 2","Wattage_PL":6.4,"Quantity_(":25,"Year_of_la":"2007","Year_of_op":"2011","Y":13.240094,"X":108.060254},"geometry":{"type":"Point","coordinates":[108.060254,13.240094]}},{"type":"Feature","properties":{"ID":287,"Vietnamese":"Ia Grai 1","English_hy":"Ia Grai 1","Wattage_PL":10.8,"Quantity_(":null,"Year_of_la":"6/2009","Year_of_op":"8/2012","Y":13.975675,"X":107.727761},"geometry":{"type":"Point","coordinates":[107.727761,13.975675]}},{"type":"Feature","properties":{"ID":288,"Vietnamese":"Ia Grai 2","English_hy":"Ia Grai 2","Wattage_PL":7.5,"Quantity_(":null,"Year_of_la":null,"Year_of_op":"2014","Y":13.975558,"X":107.792806},"geometry":{"type":"Point","coordinates":[107.792806,13.975558]}},{"type":"Feature","properties":{"ID":289,"Vietnamese":"Ia Grai 3","English_hy":"Ia Grai 3","Wattage_PL":7.5,"Quantity_(":40,"Year_of_la":"2004","Year_of_op":"2007","Y":14.022164,"X":107.649025},"geometry":{"type":"Point","coordinates":[107.649025,14.022164]}},{"type":"Feature","properties":{"ID":290,"Vietnamese":"Yan Tann Sien","English_hy":"Yan Tann Sien","Wattage_PL":19.5,"Quantity_(":79,"Year_of_la":"2008","Year_of_op":"2010","Y":12.152644,"X":108.378689},"geometry":{"type":"Point","coordinates":[108.378689,12.152644]}},{"type":"Feature","properties":{"ID":291,"Vietnamese":"Ia Krel 2","English_hy":"Ia Krel 2","Wattage_PL":5.5,"Quantity_(":null,"Year_of_la":"2009","Year_of_op":null,"Y":13.788398,"X":107.549434},"geometry":{"type":"Point","coordinates":[107.549434,13.788398]}},{"type":"Feature","properties":{"ID":292,"Vietnamese":"Đăk Đoa","English_hy":"Dak Doa","Wattage_PL":14,"Quantity_(":56,"Year_of_la":"2007","Year_of_op":"2010","Y":14.184733,"X":108.106353},"geometry":{"type":"Point","coordinates":[108.106353,14.184733]}},{"type":"Feature","properties":{"ID":293,"Vietnamese":"Hà Tây","English_hy":"Ha Tay","Wattage_PL":9,"Quantity_(":38,"Year_of_la":"5/2013","Year_of_op":"2015","Y":14.240078,"X":108.106299},"geometry":{"type":"Point","coordinates":[108.106299,14.240078]}},{"type":"Feature","properties":{"ID":294,"Vietnamese":"Krông Kmar","English_hy":"Krong Kmar","Wattage_PL":12,"Quantity_(":60,"Year_of_la":"2005","Year_of_op":"2008","Y":12.451969,"X":108.337206},"geometry":{"type":"Point","coordinates":[108.337206,12.451969]}},{"type":"Feature","properties":{"ID":295,"Vietnamese":"Buôn Tua Srah","English_hy":"Buon Tua Srah","Wattage_PL":86,"Quantity_(":359,"Year_of_la":"2004","Year_of_op":"2009","Y":12.285192,"X":108.038286},"geometry":{"type":"Point","coordinates":[108.038286,12.285192]}},{"type":"Feature","properties":{"ID":296,"Vietnamese":"Krông Nô 2","English_hy":"Krong No 2","Wattage_PL":30,"Quantity_(":106,"Year_of_la":"2010","Year_of_op":"2017","Y":12.253908,"X":108.355733},"geometry":{"type":"Point","coordinates":[108.355733,12.253908]}},{"type":"Feature","properties":{"ID":297,"Vietnamese":"Krông Nô 3","English_hy":"Krong No 3","Wattage_PL":18,"Quantity_(":63.5,"Year_of_la":"2010","Year_of_op":"2016","Y":12.211661,"X":108.284672},"geometry":{"type":"Point","coordinates":[108.284672,12.211661]}},{"type":"Feature","properties":{"ID":298,"Vietnamese":"Đăk N'teng","English_hy":"Dak N'teng","Wattage_PL":13,"Quantity_(":53,"Year_of_la":null,"Year_of_op":"2011","Y":12.195769,"X":107.926781},"geometry":{"type":"Point","coordinates":[107.926781,12.195769]}},{"type":"Feature","properties":{"ID":299,"Vietnamese":"Đăk Lô 1,2,3","English_hy":"Dak Lo 1,2,3","Wattage_PL":22,"Quantity_(":93,"Year_of_la":"2/2012","Year_of_op":"1/2016","Y":14.7275,"X":108.369444},"geometry":{"type":"Point","coordinates":[108.369444,14.7275]}},{"type":"Feature","properties":{"ID":300,"Vietnamese":"Plei Kần Hạ","English_hy":"Plei Kan Ha","Wattage_PL":10,"Quantity_(":38,"Year_of_la":null,"Year_of_op":"10/2020","Y":14.711377,"X":107.712242},"geometry":{"type":"Point","coordinates":[107.712242,14.711377]}},{"type":"Feature","properties":{"ID":301,"Vietnamese":"Đăk Pô Kô","English_hy":"Dak Po Ko","Wattage_PL":15,"Quantity_(":66,"Year_of_la":"2015","Year_of_op":"2017","Y":14.65,"X":107.79028},"geometry":{"type":"Point","coordinates":[107.79028,14.65]}},{"type":"Feature","properties":{"ID":302,"Vietnamese":"Đăk Pô Ne","English_hy":"Dak Po Ne","Wattage_PL":15.6,"Quantity_(":69,"Year_of_la":"2004","Year_of_op":"2009","Y":14.57585,"X":108.30485},"geometry":{"type":"Point","coordinates":[108.30485,14.57585]}},{"type":"Feature","properties":{"ID":303,"Vietnamese":"Đăk Psi","English_hy":"Dak Psi","Wattage_PL":18,"Quantity_(":null,"Year_of_la":null,"Year_of_op":null,"Y":null,"X":null},"geometry":null},{"type":"Feature","properties":{"ID":304,"Vietnamese":"Đăk Psi 2B","English_hy":"Dak Psi 2B","Wattage_PL":14,"Quantity_(":52.5,"Year_of_la":"2011","Year_of_op":"2018","Y":14.865917,"X":108.014813},"geometry":{"type":"Point","coordinates":[108.014813,14.865917]}},{"type":"Feature","properties":{"ID":305,"Vietnamese":"Đăk Psi 3","English_hy":"Dak Psi 3","Wattage_PL":15,"Quantity_(":60,"Year_of_la":"2010","Year_of_op":"2012","Y":14.771339,"X":108.002013},"geometry":{"type":"Point","coordinates":[108.002013,14.771339]}},{"type":"Feature","properties":{"ID":306,"Vietnamese":"Đăk Psi 4","English_hy":"Dak Psi 4","Wattage_PL":30,"Quantity_(":115,"Year_of_la":"2007","Year_of_op":"2010","Y":14.705816,"X":107.966127},"geometry":{"type":"Point","coordinates":[107.966127,14.705816]}},{"type":"Feature","properties":{"ID":307,"Vietnamese":"Đăk Psi 5","English_hy":"Dak Psi 5","Wattage_PL":10,"Quantity_(":40,"Year_of_la":"2009","Year_of_op":"2014","Y":14.66075,"X":107.937924},"geometry":{"type":"Point","coordinates":[107.937924,14.66075]}},{"type":"Feature","properties":{"ID":308,"Vietnamese":"Đăk Psi 6","English_hy":"Dak Psi 6","Wattage_PL":12,"Quantity_(":50,"Year_of_la":"2018","Year_of_op":null,"Y":null,"X":null},"geometry":null},{"type":"Feature","properties":{"ID":309,"Vietnamese":"Đăk Trưa 1&2","English_hy":"Dak Trua 1&2","Wattage_PL":8.8,"Quantity_(":30,"Year_of_la":"2018","Year_of_op":"2020","Y":14.714736,"X":108.003551},"geometry":{"type":"Point","coordinates":[108.003551,14.714736]}},{"type":"Feature","properties":{"ID":310,"Vietnamese":"Ia Púch 3","English_hy":"Ia Puch 3","Wattage_PL":6.6,"Quantity_(":null,"Year_of_la":null,"Year_of_op":null,"Y":13.733377,"X":107.804888},"geometry":{"type":"Point","coordinates":[107.804888,13.733377]}},{"type":"Feature","properties":{"ID":311,"Vietnamese":"Đăk Ruồi","English_hy":"Dak Ruoi","Wattage_PL":24,"Quantity_(":null,"Year_of_la":null,"Year_of_op":"2018","Y":null,"X":null},"geometry":null},{"type":"Feature","properties":{"ID":312,"Vietnamese":"Đăk Ruồi 2","English_hy":"Dak Ruoi 2","Wattage_PL":14,"Quantity_(":null,"Year_of_la":"2011","Year_of_op":"2021","Y":null,"X":null},"geometry":null},{"type":"Feature","properties":{"ID":313,"Vietnamese":"Ry Ninh 2","English_hy":"Ry Ninh 2","Wattage_PL":8.1,"Quantity_(":null,"Year_of_la":null,"Year_of_op":null,"Y":null,"X":null},"geometry":null},{"type":"Feature","properties":{"ID":314,"Vietnamese":"Sê San 4A","English_hy":"Se San 4A","Wattage_PL":63,"Quantity_(":331,"Year_of_la":"2008","Year_of_op":"2011","Y":13.930833,"X":107.467778},"geometry":{"type":"Point","coordinates":[107.467778,13.930833]}},{"type":"Feature","properties":{"ID":315,"Vietnamese":"Hòa Phú","English_hy":"Hoa Phu","Wattage_PL":29,"Quantity_(":132,"Year_of_la":"2011","Year_of_op":"2014","Y":12.649661,"X":107.909117},"geometry":{"type":"Point","coordinates":[107.909117,12.649661]}},{"type":"Feature","properties":{"ID":316,"Vietnamese":"Đray H'linh 1","English_hy":"Dray H'linh 1","Wattage_PL":12,"Quantity_(":null,"Year_of_la":"1984","Year_of_op":"1990","Y":12.671211,"X":107.907508},"geometry":{"type":"Point","coordinates":[107.907508,12.671211]}},{"type":"Feature","properties":{"ID":317,"Vietnamese":"Đray H'linh 2","English_hy":"Dray H'linh 2","Wattage_PL":16,"Quantity_(":80,"Year_of_la":"2003","Year_of_op":"2007","Y":12.675675,"X":107.904142},"geometry":{"type":"Point","coordinates":[107.904142,12.675675]}},{"type":"Feature","properties":{"ID":318,"Vietnamese":"Sêrêpôk 4","English_hy":"Serepok 4","Wattage_PL":80,"Quantity_(":336,"Year_of_la":"2008","Year_of_op":"2010","Y":12.807242,"X":107.855131},"geometry":{"type":"Point","coordinates":[107.855131,12.807242]}},{"type":"Feature","properties":{"ID":319,"Vietnamese":"Sêrêpôk 4A","English_hy":"Serepok 4A","Wattage_PL":64,"Quantity_(":308,"Year_of_la":"2010","Year_of_op":"2014","Y":12.893464,"X":107.812294},"geometry":{"type":"Point","coordinates":[107.812294,12.893464]}},{"type":"Feature","properties":{"ID":320,"Vietnamese":"Đăk Rơ Sa","English_hy":"Dak Ro Sa","Wattage_PL":7.5,"Quantity_(":143,"Year_of_la":"2003","Year_of_op":"2007","Y":14.747278,"X":107.835808},"geometry":{"type":"Point","coordinates":[107.835808,14.747278]}},{"type":"Feature","properties":{"ID":321,"Vietnamese":"Đăk Ba","English_hy":"Dak Ba","Wattage_PL":19.5,"Quantity_(":null,"Year_of_la":"2017","Year_of_op":"2020","Y":15.012395,"X":108.297078},"geometry":{"type":"Point","coordinates":[108.297078,15.012395]}},{"type":"Feature","properties":{"ID":322,"Vietnamese":"Tiên Thuận","English_hy":"Tien Thuan","Wattage_PL":10,"Quantity_(":40,"Year_of_la":"2009","Year_of_op":"2014","Y":13.99848,"X":108.826588},"geometry":{"type":"Point","coordinates":[108.826588,13.99848]}},{"type":"Feature","properties":{"ID":323,"Vietnamese":"Sơn Tây","English_hy":"Son Tay","Wattage_PL":18,"Quantity_(":null,"Year_of_la":"2017","Year_of_op":"2019","Y":15.0114,"X":108.36094},"geometry":{"type":"Point","coordinates":[108.36094,15.0114]}},{"type":"Feature","properties":{"ID":324,"Vietnamese":"Sông Hinh","English_hy":"Song Hinh","Wattage_PL":70,"Quantity_(":370,"Year_of_la":"1995","Year_of_op":"2001","Y":12.928144,"X":108.993572},"geometry":{"type":"Point","coordinates":[108.993572,12.928144]}},{"type":"Feature","properties":{"ID":325,"Vietnamese":"Vĩnh Sơn","English_hy":"Vinh Son","Wattage_PL":66,"Quantity_(":229,"Year_of_la":"1991","Year_of_op":"2001","Y":14.365631,"X":108.69425},"geometry":{"type":"Point","coordinates":[108.69425,14.365631]}},{"type":"Feature","properties":{"ID":326,"Vietnamese":"Vĩnh Sơn 5","English_hy":"Vinh Son 5","Wattage_PL":28,"Quantity_(":103,"Year_of_la":"2009","Year_of_op":"4/2014","Y":14.361094,"X":108.720303},"geometry":{"type":"Point","coordinates":[108.720303,14.361094]}},{"type":"Feature","properties":{"ID":327,"Vietnamese":"Định Bình","English_hy":"Dinh Binh","Wattage_PL":9.9,"Quantity_(":45,"Year_of_la":"2004","Year_of_op":"2008","Y":14.156528,"X":108.772672},"geometry":{"type":"Point","coordinates":[108.772672,14.156528]}},{"type":"Feature","properties":{"ID":328,"Vietnamese":"Văn Phong","English_hy":"Van Phong","Wattage_PL":6,"Quantity_(":23,"Year_of_la":"2013","Year_of_op":"2015","Y":13.94778,"X":108.862127},"geometry":{"type":"Point","coordinates":[108.862127,13.94778]}},{"type":"Feature","properties":{"ID":329,"Vietnamese":"La Hiêng 2","English_hy":"La Hieng 2","Wattage_PL":18,"Quantity_(":68,"Year_of_la":"2009","Year_of_op":"2015","Y":13.501723,"X":108.848112},"geometry":{"type":"Point","coordinates":[108.848112,13.501723]}},{"type":"Feature","properties":{"ID":330,"Vietnamese":"Trà Linh 2","English_hy":"Tra Linh 2","Wattage_PL":18,"Quantity_(":null,"Year_of_la":"2017","Year_of_op":"2020","Y":15.028136,"X":108.000617},"geometry":{"type":"Point","coordinates":[108.000617,15.028136]}},{"type":"Feature","properties":{"ID":331,"Vietnamese":"Trà Linh 3","English_hy":"Tra Linh 3","Wattage_PL":7.2,"Quantity_(":null,"Year_of_la":null,"Year_of_op":"2009","Y":15.047286,"X":108.066782},"geometry":{"type":"Point","coordinates":[108.066782,15.047286]}},{"type":"Feature","properties":{"ID":332,"Vietnamese":"Nước Biêu","English_hy":"Nuoc Bieu","Wattage_PL":14,"Quantity_(":49,"Year_of_la":"2018","Year_of_op":"12/2019","Y":15.079944,"X":108.064282},"geometry":{"type":"Point","coordinates":[108.064282,15.079944]}},{"type":"Feature","properties":{"ID":333,"Vietnamese":"Đăk Re","English_hy":"Dak Re","Wattage_PL":60,"Quantity_(":270,"Year_of_la":"2016","Year_of_op":"7/2019","Y":14.604476,"X":108.485742},"geometry":{"type":"Point","coordinates":[108.485742,14.604476]}},{"type":"Feature","properties":{"ID":334,"Vietnamese":"Nước Trong","English_hy":"Nuoc Trong","Wattage_PL":16.5,"Quantity_(":70,"Year_of_la":"2008","Year_of_op":"2012","Y":15.080886,"X":108.411756},"geometry":{"type":"Point","coordinates":[108.411756,15.080886]}},{"type":"Feature","properties":{"ID":335,"Vietnamese":"Trà Khúc 1","English_hy":"Tra Khuc 1","Wattage_PL":30,"Quantity_(":124,"Year_of_la":"5/2019","Year_of_op":"2021","Y":15.013519,"X":108.527357},"geometry":{"type":"Point","coordinates":[108.527357,15.013519]}},{"type":"Feature","properties":{"ID":336,"Vietnamese":"Trà Khúc 2","English_hy":"Tra Khuc 2","Wattage_PL":30,"Quantity_(":114.1,"Year_of_la":null,"Year_of_op":null,"Y":null,"X":null},"geometry":null},{"type":"Feature","properties":{"ID":337,"Vietnamese":"Thạch Nham","English_hy":"Thach Nham","Wattage_PL":5,"Quantity_(":null,"Year_of_la":"3/2017","Year_of_op":"2019","Y":15.119188,"X":108.622099},"geometry":{"type":"Point","coordinates":[108.622099,15.119188]}},{"type":"Feature","properties":{"ID":338,"Vietnamese":"Trà Xom","English_hy":"Tra Xom","Wattage_PL":20,"Quantity_(":86,"Year_of_la":"01/2008","Year_of_op":"2013","Y":14.305099,"X":108.688405},"geometry":{"type":"Point","coordinates":[108.688405,14.305099]}},{"type":"Feature","properties":{"ID":339,"Vietnamese":"Sơn Trà 1A&B","English_hy":"Son Tra 1A&B","Wattage_PL":60,"Quantity_(":220,"Year_of_la":"1/2015","Year_of_op":"01/2019","Y":14.846685,"X":108.424153},"geometry":{"type":"Point","coordinates":[108.424153,14.846685]}},{"type":"Feature","properties":{"ID":342,"Vietnamese":"Đa Kai","English_hy":"Da Kai","Wattage_PL":8,"Quantity_(":30,"Year_of_la":null,"Year_of_op":null,"Y":11.775089,"X":107.822376},"geometry":{"type":"Point","coordinates":[107.822376,11.775089]}},{"type":"Feature","properties":{"ID":343,"Vietnamese":"Đa Khai","English_hy":"Da Khai","Wattage_PL":8.1,"Quantity_(":38.5,"Year_of_la":"2/2006","Year_of_op":"2009","Y":12.106329,"X":108.554532},"geometry":{"type":"Point","coordinates":[108.554532,12.106329]}},{"type":"Feature","properties":{"ID":344,"Vietnamese":"Đambol","English_hy":"Dambol","Wattage_PL":10.2,"Quantity_(":null,"Year_of_la":null,"Year_of_op":"1/2011","Y":11.693363,"X":107.65918},"geometry":{"type":"Point","coordinates":[107.65918,11.693363]}},{"type":"Feature","properties":{"ID":345,"Vietnamese":"Đa M'bri","English_hy":"Da M'bri","Wattage_PL":75,"Quantity_(":338,"Year_of_la":"2008","Year_of_op":"2014","Y":11.582669,"X":107.672578},"geometry":{"type":"Point","coordinates":[107.672578,11.582669]}},{"type":"Feature","properties":{"ID":346,"Vietnamese":"Đa Nhim Thượng 2","English_hy":"Da Nhim Thuong 2","Wattage_PL":7.5,"Quantity_(":32,"Year_of_la":"2005","Year_of_op":"2010","Y":12.085198,"X":108.594621},"geometry":{"type":"Point","coordinates":[108.594621,12.085198]}},{"type":"Feature","properties":{"ID":347,"Vietnamese":"Đa Siat","English_hy":"Da Siat","Wattage_PL":13.5,"Quantity_(":60,"Year_of_la":"6/2005","Year_of_op":"12/2009","Y":11.833043,"X":107.644112},"geometry":{"type":"Point","coordinates":[107.644112,11.833043]}},{"type":"Feature","properties":{"ID":348,"Vietnamese":"Đại Nga","English_hy":"Dai Nga","Wattage_PL":10,"Quantity_(":44,"Year_of_la":"2008","Year_of_op":"2015","Y":11.540448,"X":107.872343},"geometry":{"type":"Point","coordinates":[107.872343,11.540448]}},{"type":"Feature","properties":{"ID":349,"Vietnamese":"Đan Sách 1","English_hy":"Dan Sach 1","Wattage_PL":6,"Quantity_(":null,"Year_of_la":"2012","Year_of_op":"2015","Y":11.266885,"X":108.000182},"geometry":{"type":"Point","coordinates":[108.000182,11.266885]}},{"type":"Feature","properties":{"ID":350,"Vietnamese":"Đăk Rung 1&2","English_hy":"Dak Rung 1&2","Wattage_PL":14,"Quantity_(":null,"Year_of_la":"2007","Year_of_op":"2010","Y":12.113889,"X":107.633611},"geometry":{"type":"Point","coordinates":[107.633611,12.113889]}},{"type":"Feature","properties":{"ID":351,"Vietnamese":"Đạ Dâng 2","English_hy":"Da Dang 2","Wattage_PL":34,"Quantity_(":152,"Year_of_la":"2007","Year_of_op":"2010","Y":11.721953,"X":108.246808},"geometry":{"type":"Point","coordinates":[108.246808,11.721953]}},{"type":"Feature","properties":{"ID":352,"Vietnamese":"Đạ Dâng - Đạ Chomo","English_hy":"Da Dang - Da Chomo","Wattage_PL":23,"Quantity_(":111,"Year_of_la":"2003","Year_of_op":"2016","Y":11.95346,"X":108.307746},"geometry":{"type":"Point","coordinates":[108.307746,11.95346]}},{"type":"Feature","properties":{"ID":353,"Vietnamese":"Đồng Nai 2","English_hy":"Dong Nai 2","Wattage_PL":70,"Quantity_(":264,"Year_of_la":"2007","Year_of_op":"2015","Y":11.712939,"X":108.057867},"geometry":{"type":"Point","coordinates":[108.057867,11.712939]}},{"type":"Feature","properties":{"ID":354,"Vietnamese":"Đức Thành","English_hy":"Duc Thanh","Wattage_PL":30,"Quantity_(":null,"Year_of_la":null,"Year_of_op":"2018","Y":11.671296,"X":107.271677},"geometry":{"type":"Point","coordinates":[107.271677,11.671296]}},{"type":"Feature","properties":{"ID":357,"Vietnamese":"Bảo Lộc","English_hy":"Bao Loc","Wattage_PL":40,"Quantity_(":128.6,"Year_of_la":"2005","Year_of_op":"2009","Y":11.424754,"X":107.874937},"geometry":{"type":"Point","coordinates":[107.874937,11.424754]}},{"type":"Feature","properties":{"ID":358,"Vietnamese":"Đắc Mê","English_hy":"Dac Me","Wattage_PL":5,"Quantity_(":25,"Year_of_la":"2009","Year_of_op":"2011","Y":12.133269,"X":108.313047},"geometry":{"type":"Point","coordinates":[108.313047,12.133269]}},{"type":"Feature","properties":{"ID":359,"Vietnamese":"Đăk Nông 2","English_hy":"Dak Nong 2","Wattage_PL":16,"Quantity_(":65,"Year_of_la":null,"Year_of_op":"2016","Y":11.964508,"X":107.667511},"geometry":{"type":"Point","coordinates":[107.667511,11.964508]}},{"type":"Feature","properties":{"ID":360,"Vietnamese":"Đăk Sin 1","English_hy":"Dak Sin 1","Wattage_PL":28,"Quantity_(":105,"Year_of_la":"2010","Year_of_op":"2015","Y":11.820482,"X":107.458698},"geometry":{"type":"Point","coordinates":[107.458698,11.820482]}},{"type":"Feature","properties":{"ID":361,"Vietnamese":"Quảng Tín","English_hy":"Quang Tin","Wattage_PL":5,"Quantity_(":21,"Year_of_la":"2007","Year_of_op":"2009","Y":11.954382,"X":107.438904},"geometry":{"type":"Point","coordinates":[107.438904,11.954382]}},{"type":"Feature","properties":{"ID":362,"Vietnamese":"Đăk Ru","English_hy":"Dak Ru","Wattage_PL":6.9,"Quantity_(":30,"Year_of_la":"2005","Year_of_op":"2007","Y":11.905759,"X":107.422936},"geometry":{"type":"Point","coordinates":[107.422936,11.905759]}},{"type":"Feature","properties":{"ID":363,"Vietnamese":"Sông Chò 2","English_hy":"Song Cho 2","Wattage_PL":7,"Quantity_(":26,"Year_of_la":"2016","Year_of_op":"2018","Y":12.447036,"X":108.843612},"geometry":{"type":"Point","coordinates":[108.843612,12.447036]}},{"type":"Feature","properties":{"ID":364,"Vietnamese":"Đan Sách 2&3","English_hy":"Dan Sach 2&3","Wattage_PL":5.5,"Quantity_(":25,"Year_of_la":"2012","Year_of_op":"02/2015","Y":11.242646,"X":108.009698},"geometry":{"type":"Point","coordinates":[108.009698,11.242646]}},{"type":"Feature","properties":{"ID":365,"Vietnamese":"Sông Giang 2","English_hy":"Song Giang 2","Wattage_PL":37,"Quantity_(":142,"Year_of_la":"2009","Year_of_op":"2014","Y":12.372883,"X":108.837386},"geometry":{"type":"Point","coordinates":[108.837386,12.372883]}},{"type":"Feature","properties":{"ID":366,"Vietnamese":"Ea Krông Rou","English_hy":"Ea Krong Rou","Wattage_PL":28,"Quantity_(":140,"Year_of_la":"2005","Year_of_op":"2007","Y":12.599167,"X":108.939722},"geometry":{"type":"Point","coordinates":[108.939722,12.599167]}},{"type":"Feature","properties":{"ID":367,"Vietnamese":"Bắc Bình","English_hy":"Bac Binh","Wattage_PL":33,"Quantity_(":145,"Year_of_la":"2003","Year_of_op":"2009","Y":11.371086,"X":108.328156},"geometry":{"type":"Point","coordinates":[108.328156,11.371086]}},{"type":"Feature","properties":{"ID":368,"Vietnamese":"Sông Pha","English_hy":"Song Pha","Wattage_PL":7.5,"Quantity_(":40,"Year_of_la":"1992","Year_of_op":"1995","Y":11.833866,"X":108.684705},"geometry":{"type":"Point","coordinates":[108.684705,11.833866]}},{"type":"Feature","properties":{"ID":369,"Vietnamese":"Hạ Sông Pha 1","English_hy":"Ha Song Pha 1","Wattage_PL":5.4,"Quantity_(":32,"Year_of_la":"2011","Year_of_op":"2013","Y":11.829795,"X":108.691826},"geometry":{"type":"Point","coordinates":[108.691826,11.829795]}},{"type":"Feature","properties":{"ID":370,"Vietnamese":"Hạ Sông Pha 2","English_hy":"Ha Song Pha 2","Wattage_PL":5.1,"Quantity_(":30,"Year_of_la":"2011","Year_of_op":"2015","Y":11.832935,"X":108.708343},"geometry":{"type":"Point","coordinates":[108.708343,11.832935]}},{"type":"Feature","properties":{"ID":371,"Vietnamese":"Sông Ông","English_hy":"Song Ong","Wattage_PL":8.1,"Quantity_(":41,"Year_of_la":"7/2005","Year_of_op":"8/2009","Y":11.771322,"X":108.798482},"geometry":{"type":"Point","coordinates":[108.798482,11.771322]}}]}